{"type": "FeatureCollection", "features": [ {"type": "Feature", "properties": {"norad_id": 37528, "name": "COSMOS 2251 DEB", "group": "cosmos-2251-debris", "lat": -23.666350095904846, "lon": -51.43472524927133, "alt_km": 722.6292364236351, "timestamp": "2025-12-13T03:42:11.669852+00:00", "meta": {"OBJECT_NAME": "COSMOS 2251 DEB", "OBJECT_ID": "1993-036BNH", "EPOCH": "2025-12-11T16:00:02.560320", "MEAN_MOTION": 14.50514088, "ECCENTRICITY": 0.00210781, "INCLINATION": 74.0369, "RA_OF_ASC_NODE": 124.1531, "ARG_OF_PERICENTER": 272.3506, "MEAN_ANOMALY": 87.5241, "EPHEMERIS_TYPE": 0, "CLASSIFICATION_TYPE": "U", "NORAD_CAT_ID": 37528, "ELEMENT_SET_NO": 999, "REV_AT_EPOCH": 85915, "BSTAR": 0.00080165521, "MEAN_MOTION_DOT": 3.121e-05, "MEAN_MOTION_DDOT": 0}, "tle": {"line1": "1 37528U 93036BNH 25345.66669630  .00003121  00000+0  80166-3 0  9997", "line2": "2 37528  74.0369 124.1531 0021078 272.3506  87.5241 14.50514088859157"}}, "geometry": {"type": "Point", "coordinates": [-51.43472524927133, -23.666350095904846]}}, {"type": "Feature", "properties": {"norad_id": 37530, "name": "COSMOS 2251 DEB", "group": "cosmos-2251-debris", "lat": 74.02570899193546, "lon": 62.945436194726824, "alt_km": 758.7539525109851, "timestamp": "2025-12-13T03:42:11.669862+00:00", "meta": {"OBJECT_NAME": "COSMOS 2251 DEB", "OBJECT_ID": "1993-036BNK", "EPOCH": "2025-12-10T08:38:54.155328", "MEAN_MOTION": 14.34498847, "ECCENTRICITY": 0.00257113, "INCLINATION": 74.0355, "RA_OF_ASC_NODE": 338.0003, "ARG_OF_PERICENTER": 40.6247, "MEAN_ANOMALY": 26.3966, "EPHEMERIS_TYPE": 0, "CLASSIFICATION_TYPE": "U", "NORAD_CAT_ID": 37530, "ELEMENT_SET_NO": 999, "REV_AT_EPOCH": 85198, "BSTAR": 0.00036135133, "MEAN_MOTION_DOT": 9.97e-06, "MEAN_MOTION_DDOT": 0}, "tle": {"line1": "1 37530U 93036BNK 25344.36034902  .00000997  00000+0  36135-3 0  9999", "line2": "2 37530  74.0355 338.0003 0025711  40.6247  26.3966 14.34498847851985"}}, "geometry": {"type": "Point", "coordinates": [62.945436194726824, 74.02570899193546]}}, {"type": "Feature", "properties": {"norad_id": 37532, "name": "COSMOS 2251 DEB", "group": "cosmos-2251-debris", "lat": -57.77207989060527, "lon": 61.93136917409875, "alt_km": 754.1045965197964, "timestamp": "2025-12-13T03:42:11.669872+00:00", "meta": {"OBJECT_NAME": "COSMOS 2251 DEB", "OBJECT_ID": "1993-036BNM", "EPOCH": "2025-12-11T09:48:08.550720", "MEAN_MOTION": 14.42404906, "ECCENTRICITY": 0.00159305, "INCLINATION": 74.0497, "RA_OF_ASC_NODE": 218.1872, "ARG_OF_PERICENTER": 319.0125, "MEAN_ANOMALY": 220.6834, "EPHEMERIS_TYPE": 0, "CLASSIFICATION_TYPE": "U", "NORAD_CAT_ID": 37532, "ELEMENT_SET_NO": 999, "REV_AT_EPOCH": 84896, "BSTAR": 0.00034566726, "MEAN_MOTION_DOT": 1.119e-05, "MEAN_MOTION_DDOT": 0}, "tle": {"line1": "1 37532U 93036BNM 25345.40843230  .00001119  00000+0  34567-3 0  9993", "line2": "2 37532  74.0497 218.1872 0015930 319.0125 220.6834 14.42404906848965"}}, "geometry": {"type": "Point", "coordinates": [61.93136917409875, -57.77207989060527]}}, {"type": "Feature", "properties": {"norad_id": 37533, "name": "COSMOS 2251 DEB", "group": "cosmos-2251-debris", "lat": -64.91264692448235, "lon": 153.4815911216737, "alt_km": 773.2074585998389, "timestamp": "2025-12-13T03:42:11.669882+00:00", "meta": {"OBJECT_NAME": "COSMOS 2251 DEB", "OBJECT_ID": "1993-036BNN", "EPOCH": "2025-12-10T19:55:37.417152", "MEAN_MOTION": 14.12152288, "ECCENTRICITY": 0.01580439, "INCLINATION": 74.0697, "RA_OF_ASC_NODE": 195.1706, "ARG_OF_PERICENTER": 252.2523, "MEAN_ANOMALY": 106.1316, "EPHEMERIS_TYPE": 0, "CLASSIFICATION_TYPE": "U", "NORAD_CAT_ID": 37533, "ELEMENT_SET_NO": 999, "REV_AT_EPOCH": 62894, "BSTAR": 0.0019185157, "MEAN_MOTION_DOT": 3.939e-05, "MEAN_MOTION_DDOT": 0}, "tle": {"line1": "1 37533U 93036BNN 25344.83029418  .00003939  00000+0  19185-2 0  9994", "line2": "2 37533  74.0697 195.1706 0158043 252.2523 106.1316 14.12152288628948"}}, "geometry": {"type": "Point", "coordinates": [153.4815911216737, -64.91264692448235]}}, {"type": "Feature", "properties": {"norad_id": 37535, "name": "COSMOS 2251 DEB", "group": "cosmos-2251-debris", "lat": -71.38874272413192, "lon": 14.420261687817906, "alt_km": 697.7252196442378, "timestamp": "2025-12-13T03:42:11.669892+00:00", "meta": {"OBJECT_NAME": "COSMOS 2251 DEB", "OBJECT_ID": "1993-036BNQ", "EPOCH": "2025-12-11T22:58:54.277824", "MEAN_MOTION": 14.58448247, "ECCENTRICITY": 0.0027855, "INCLINATION": 74.0237, "RA_OF_ASC_NODE": 74.9896, "ARG_OF_PERICENTER": 214.018, "MEAN_ANOMALY": 264.5877, "EPHEMERIS_TYPE": 0, "CLASSIFICATION_TYPE": "U", "NORAD_CAT_ID": 37535, "ELEMENT_SET_NO": 999, "REV_AT_EPOCH": 85313, "BSTAR": 0.0012946, "MEAN_MOTION_DOT": 6.014e-05, "MEAN_MOTION_DDOT": 0}, "tle": {"line1": "1 37535U 93036BNQ 25345.95757266  .00006014  00000+0  12946-2 0  9994", "line2": "2 37535  74.0237  74.9896 0027855 214.0180 264.5877 14.58448247853130"}}, "geometry": {"type": "Point", "coordinates": [14.420261687817906, -71.38874272413192]}}, {"type": "Feature", "properties": {"norad_id": 37537, "name": "COSMOS 2251 DEB", "group": "cosmos-2251-debris", "lat": 70.84190895553127, "lon": -40.02466507352167, "alt_km": 730.0779682385637, "timestamp": "2025-12-13T03:42:11.669902+00:00", "meta": {"OBJECT_NAME": "COSMOS 2251 DEB", "OBJECT_ID": "1993-036BNS", "EPOCH": "2025-12-11T11:15:11.696832", "MEAN_MOTION": 14.37489039, "ECCENTRICITY": 0.00502138, "INCLINATION": 74.0122, "RA_OF_ASC_NODE": 267.468, "ARG_OF_PERICENTER": 48.0201, "MEAN_ANOMALY": 312.5213, "EPHEMERIS_TYPE": 0, "CLASSIFICATION_TYPE": "U", "NORAD_CAT_ID": 37537, "ELEMENT_SET_NO": 999, "REV_AT_EPOCH": 85015, "BSTAR": 0.0003879169, "MEAN_MOTION_DOT": 1.152e-05, "MEAN_MOTION_DDOT": 0}, "tle": {"line1": "1 37537U 93036BNS 25345.46888538  .00001152  00000+0  38792-3 0  9995", "line2": "2 37537  74.0122 267.4680 0050213  48.0201 312.5213 14.37489039850156"}}, "geometry": {"type": "Point", "coordinates": [-40.02466507352167, 70.84190895553127]}}, {"type": "Feature", "properties": {"norad_id": 37546, "name": "COSMOS 2251 DEB", "group": "cosmos-2251-debris", "lat": -39.83255247795556, "lon": -68.98349603080082, "alt_km": 635.1648358556577, "timestamp": "2025-12-13T03:42:11.669911+00:00", "meta": {"OBJECT_NAME": "COSMOS 2251 DEB", "OBJECT_ID": "1993-036BPB", "EPOCH": "2025-12-10T14:41:58.458624", "MEAN_MOTION": 14.80377439, "ECCENTRICITY": 0.0005891, "INCLINATION": 74.0204, "RA_OF_ASC_NODE": 102.2005, "ARG_OF_PERICENTER": 116.7302, "MEAN_ANOMALY": 243.4478, "EPHEMERIS_TYPE": 0, "CLASSIFICATION_TYPE": "U", "NORAD_CAT_ID": 37546, "ELEMENT_SET_NO": 999, "REV_AT_EPOCH": 65856, "BSTAR": 0.0047609, "MEAN_MOTION_DOT": 0.00036522, "MEAN_MOTION_DDOT": 0}, "tle": {"line1": "1 37546U 93036BPB 25344.61248216  .00036522  00000+0  47609-2 0  9999", "line2": "2 37546  74.0204 102.2005 0005891 116.7302 243.4478 14.80377439658565"}}, "geometry": {"type": "Point", "coordinates": [-68.98349603080082, -39.83255247795556]}}, {"type": "Feature", "properties": {"norad_id": 37959, "name": "COSMOS 2251 DEB", "group": "cosmos-2251-debris", "lat": 21.2546691894322, "lon": 62.558397080360265, "alt_km": 739.5799829600992, "timestamp": "2025-12-13T03:42:11.669921+00:00", "meta": {"OBJECT_NAME": "COSMOS 2251 DEB", "OBJECT_ID": "1993-036BPJ", "EPOCH": "2025-12-11T16:04:39.054144", "MEAN_MOTION": 14.58134361, "ECCENTRICITY": 0.00579142, "INCLINATION": 74.0105, "RA_OF_ASC_NODE": 58.9822, "ARG_OF_PERICENTER": 201.9689, "MEAN_ANOMALY": 311.4152, "EPHEMERIS_TYPE": 0, "CLASSIFICATION_TYPE": "U", "NORAD_CAT_ID": 37959, "ELEMENT_SET_NO": 999, "REV_AT_EPOCH": 80111, "BSTAR": 0.0011590963, "MEAN_MOTION_DOT": 5.439e-05, "MEAN_MOTION_DDOT": 0}, "tle": {"line1": "1 37959U 93036BPJ 25345.66989646  .00005439  00000+0  11591-2 0  9996", "line2": "2 37959  74.0105  58.9822 0057914 201.9689 311.4152 14.58134361801111"}}, "geometry": {"type": "Point", "coordinates": [62.558397080360265, 21.2546691894322]}}, {"type": "Feature", "properties": {"norad_id": 37960, "name": "COSMOS 2251 DEB", "group": "cosmos-2251-debris", "lat": 14.64930590010026, "lon": 1.8802283978823402, "alt_km": 727.4833691486056, "timestamp": "2025-12-13T03:42:11.669932+00:00", "meta": {"OBJECT_NAME": "COSMOS 2251 DEB", "OBJECT_ID": "1993-036BPK", "EPOCH": "2025-12-12T06:26:40.089120", "MEAN_MOTION": 14.07853439, "ECCENTRICITY": 0.02488265, "INCLINATION": 74.0564, "RA_OF_ASC_NODE": 187.7177, "ARG_OF_PERICENTER": 206.5112, "MEAN_ANOMALY": 152.3125, "EPHEMERIS_TYPE": 0, "CLASSIFICATION_TYPE": "U", "NORAD_CAT_ID": 37960, "ELEMENT_SET_NO": 999, "REV_AT_EPOCH": 77399, "BSTAR": 0.0011181823, "MEAN_MOTION_DOT": 2.493e-05, "MEAN_MOTION_DDOT": 0}, "tle": {"line1": "1 37960U 93036BPK 25346.26851955  .00002493  00000+0  11182-2 0  9999", "line2": "2 37960  74.0564 187.7177 0248826 206.5112 152.3125 14.07853439773996"}}, "geometry": {"type": "Point", "coordinates": [1.8802283978823402, 14.64930590010026]}}, {"type": "Feature", "properties": {"norad_id": 37961, "name": "COSMOS 2251 DEB", "group": "cosmos-2251-debris", "lat": 73.54448204677546, "lon": -148.02812644126837, "alt_km": 711.177858574406, "timestamp": "2025-12-13T03:42:11.669943+00:00", "meta": {"OBJECT_NAME": "COSMOS 2251 DEB", "OBJECT_ID": "1993-036BPL", "EPOCH": "2025-12-11T10:08:14.598816", "MEAN_MOTION": 14.5795188, "ECCENTRICITY": 0.00408006, "INCLINATION": 74.0412, "RA_OF_ASC_NODE": 139.6117, "ARG_OF_PERICENTER": 220.729, "MEAN_ANOMALY": 139.0823, "EPHEMERIS_TYPE": 0, "CLASSIFICATION_TYPE": "U", "NORAD_CAT_ID": 37961, "ELEMENT_SET_NO": 999, "REV_AT_EPOCH": 80046, "BSTAR": 0.0020723036, "MEAN_MOTION_DOT": 9.604e-05, "MEAN_MOTION_DDOT": 0}, "tle": {"line1": "1 37961U 93036BPL 25345.42239119  .00009604  00000+0  20723-2 0  9991", "line2": "2 37961  74.0412 139.6117 0040800 220.7290 139.0823 14.57951880800460"}}, "geometry": {"type": "Point", "coordinates": [-148.02812644126837, 73.54448204677546]}}]}